[{"OBJECT_NAME":"FLOCK 4G-13","OBJECT_ID":"2025-009N","EPOCH":"2026-03-09T16:57:12.071808","MEAN_MOTION":15.32770015,"ECCENTRICITY":0.0003801,"INCLINATION":97.4019,"RA_OF_ASC_NODE":151.0918,"ARG_OF_PERICENTER":292.7207,"MEAN_ANOMALY":67.3633,"EPHEMERIS_TYPE":0,"CLASSIFICATION_TYPE":"U","NORAD_CAT_ID":62621,"ELEMENT_SET_NO":999,"REV_AT_EPOCH":6370,"BSTAR":0.0016695386,"MEAN_MOTION_DOT":0.00053076,"MEAN_MOTION_DDOT":0},{"OBJECT_NAME":"STARLINK-35243","OBJECT_ID":"2025-232M","EPOCH":"2026-03-09T12:07:09.055488","MEAN_MOTION":15.30197658,"ECCENTRICITY":0.00012324,"INCLINATION":53.159,"RA_OF_ASC_NODE":105.0214,"ARG_OF_PERICENTER":98.0949,"MEAN_ANOMALY":262.0192,"EPHEMERIS_TYPE":0,"CLASSIFICATION_TYPE":"U","NORAD_CAT_ID":66016,"ELEMENT_SET_NO":999,"REV_AT_EPOCH":2340,"BSTAR":0.00084491595,"MEAN_MOTION_DOT":0.00024746,"MEAN_MOTION_DDOT":0}]
